{"type": "FeatureCollection", "features": [ {"type": "Feature", "properties": {"norad_id": 33917, "name": "COSMOS 2251 DEB", "group": "cosmos-2251-debris", "lat": -10.49735383167544, "lon": 128.8711408951225, "alt_km": 1102.5665351525076, "timestamp": "2025-12-06T22:38:43.122060+00:00", "meta": {"OBJECT_NAME": "COSMOS 2251 DEB", "OBJECT_ID": "1993-036DW", "EPOCH": "2025-12-06T10:25:36.300288", "MEAN_MOTION": 13.69343619, "ECCENTRICITY": 0.03311262, "INCLINATION": 74.1065, "RA_OF_ASC_NODE": 132.7317, "ARG_OF_PERICENTER": 235.0704, "MEAN_ANOMALY": 121.8896, "EPHEMERIS_TYPE": 0, "CLASSIFICATION_TYPE": "U", "NORAD_CAT_ID": 33917, "ELEMENT_SET_NO": 999, "REV_AT_EPOCH": 83647, "BSTAR": 0.0011297196, "MEAN_MOTION_DOT": 1.419e-05, "MEAN_MOTION_DDOT": 0}, "tle": {"line1": "1 33917U 93036DW  25340.43444792  .00001419  00000+0  11297-2 0  9991", "line2": "2 33917  74.1065 132.7317 0331126 235.0704 121.8896 13.69343619836477"}}, "geometry": {"type": "Point", "coordinates": [128.8711408951225, -10.49735383167544]}}, {"type": "Feature", "properties": {"norad_id": 33920, "name": "COSMOS 2251 DEB", "group": "cosmos-2251-debris", "lat": 15.135141099829292, "lon": -46.12682873148901, "alt_km": 685.4744874336411, "timestamp": "2025-12-06T22:38:43.122070+00:00", "meta": {"OBJECT_NAME": "COSMOS 2251 DEB", "OBJECT_ID": "1993-036DZ", "EPOCH": "2025-12-05T23:31:13.622592", "MEAN_MOTION": 14.58081418, "ECCENTRICITY": 0.00386381, "INCLINATION": 74.0606, "RA_OF_ASC_NODE": 311.2693, "ARG_OF_PERICENTER": 319.2446, "MEAN_ANOMALY": 40.5829, "EPHEMERIS_TYPE": 0, "CLASSIFICATION_TYPE": "U", "NORAD_CAT_ID": 33920, "ELEMENT_SET_NO": 999, "REV_AT_EPOCH": 88016, "BSTAR": 0.0032522001, "MEAN_MOTION_DOT": 0.00015127, "MEAN_MOTION_DDOT": 0}, "tle": {"line1": "1 33920U 93036DZ  25339.98001878  .00015127  00000+0  32522-2 0  9992", "line2": "2 33920  74.0606 311.2693 0038638 319.2446  40.5829 14.58081418880165"}}, "geometry": {"type": "Point", "coordinates": [-46.12682873148901, 15.135141099829292]}}, {"type": "Feature", "properties": {"norad_id": 33922, "name": "COSMOS 2251 DEB", "group": "cosmos-2251-debris", "lat": -20.194260071665294, "lon": 152.59138690741872, "alt_km": 726.3006317453164, "timestamp": "2025-12-06T22:38:43.122080+00:00", "meta": {"OBJECT_NAME": "COSMOS 2251 DEB", "OBJECT_ID": "1993-036EB", "EPOCH": "2025-12-06T14:47:03.271776", "MEAN_MOTION": 14.49474663, "ECCENTRICITY": 0.00232815, "INCLINATION": 74.0466, "RA_OF_ASC_NODE": 159.2448, "ARG_OF_PERICENTER": 270.5316, "MEAN_ANOMALY": 159.8216, "EPHEMERIS_TYPE": 0, "CLASSIFICATION_TYPE": "U", "NORAD_CAT_ID": 33922, "ELEMENT_SET_NO": 999, "REV_AT_EPOCH": 88489, "BSTAR": 0.00082641458, "MEAN_MOTION_DOT": 3.15e-05, "MEAN_MOTION_DDOT": 0}, "tle": {"line1": "1 33922U 93036EB  25340.61601009  .00003150  00000+0  82641-3 0  9999", "line2": "2 33922  74.0466 159.2448 0023281 270.5316 159.8216 14.49474663884898"}}, "geometry": {"type": "Point", "coordinates": [152.59138690741872, -20.194260071665294]}}, {"type": "Feature", "properties": {"norad_id": 33924, "name": "COSMOS 2251 DEB", "group": "cosmos-2251-debris", "lat": 4.158868773920182, "lon": 98.3160392025553, "alt_km": 1300.398249157426, "timestamp": "2025-12-06T22:38:43.122090+00:00", "meta": {"OBJECT_NAME": "COSMOS 2251 DEB", "OBJECT_ID": "1993-036ED", "EPOCH": "2025-12-06T12:51:27.421056", "MEAN_MOTION": 13.50206516, "ECCENTRICITY": 0.04040763, "INCLINATION": 73.9144, "RA_OF_ASC_NODE": 280.1734, "ARG_OF_PERICENTER": 316.719, "MEAN_ANOMALY": 40.2811, "EPHEMERIS_TYPE": 0, "CLASSIFICATION_TYPE": "U", "NORAD_CAT_ID": 33924, "ELEMENT_SET_NO": 999, "REV_AT_EPOCH": 82655, "BSTAR": 0.0019721493, "MEAN_MOTION_DOT": 2.068e-05, "MEAN_MOTION_DDOT": 0}, "tle": {"line1": "1 33924U 93036ED  25340.53573404  .00002068  00000+0  19721-2 0  9994", "line2": "2 33924  73.9144 280.1734 0404076 316.7190  40.2811 13.50206516826555"}}, "geometry": {"type": "Point", "coordinates": [98.3160392025553, 4.158868773920182]}}, {"type": "Feature", "properties": {"norad_id": 33928, "name": "COSMOS 2251 DEB", "group": "cosmos-2251-debris", "lat": -43.33086493096495, "lon": -100.73895907573029, "alt_km": 770.2254426751979, "timestamp": "2025-12-06T22:38:43.122101+00:00", "meta": {"OBJECT_NAME": "COSMOS 2251 DEB", "OBJECT_ID": "1993-036EH", "EPOCH": "2025-12-06T14:58:08.864544", "MEAN_MOTION": 14.47387211, "ECCENTRICITY": 0.00611612, "INCLINATION": 73.926, "RA_OF_ASC_NODE": 64.0794, "ARG_OF_PERICENTER": 359.531, "MEAN_ANOMALY": 0.578, "EPHEMERIS_TYPE": 0, "CLASSIFICATION_TYPE": "U", "NORAD_CAT_ID": 33928, "ELEMENT_SET_NO": 999, "REV_AT_EPOCH": 88556, "BSTAR": 0.0004601036, "MEAN_MOTION_DOT": 1.698e-05, "MEAN_MOTION_DDOT": 0}, "tle": {"line1": "1 33928U 93036EH  25340.62371371  .00001698  00000+0  46010-3 0  9997", "line2": "2 33928  73.9260  64.0794 0061161 359.5310   0.5780 14.47387211885565"}}, "geometry": {"type": "Point", "coordinates": [-100.73895907573029, -43.33086493096495]}}, {"type": "Feature", "properties": {"norad_id": 33932, "name": "COSMOS 2251 DEB", "group": "cosmos-2251-debris", "lat": -4.0934396126025065, "lon": 147.78269246500838, "alt_km": 784.8390540780929, "timestamp": "2025-12-06T22:38:43.122111+00:00", "meta": {"OBJECT_NAME": "COSMOS 2251 DEB", "OBJECT_ID": "1993-036EM", "EPOCH": "2025-12-06T00:06:00.848736", "MEAN_MOTION": 14.38726727, "ECCENTRICITY": 0.0034989, "INCLINATION": 74.0342, "RA_OF_ASC_NODE": 328.3404, "ARG_OF_PERICENTER": 46.4275, "MEAN_ANOMALY": 313.9774, "EPHEMERIS_TYPE": 0, "CLASSIFICATION_TYPE": "U", "NORAD_CAT_ID": 33932, "ELEMENT_SET_NO": 999, "REV_AT_EPOCH": 87901, "BSTAR": 0.00085324886, "MEAN_MOTION_DOT": 2.612e-05, "MEAN_MOTION_DDOT": 0}, "tle": {"line1": "1 33932U 93036EM  25340.00417649  .00002612  00000+0  85325-3 0  9992", "line2": "2 33932  74.0342 328.3404 0034989  46.4275 313.9774 14.38726727879013"}}, "geometry": {"type": "Point", "coordinates": [147.78269246500838, -4.0934396126025065]}}, {"type": "Feature", "properties": {"norad_id": 33933, "name": "COSMOS 2251 DEB", "group": "cosmos-2251-debris", "lat": 35.493149238256095, "lon": -121.03637141088396, "alt_km": 753.2393978756736, "timestamp": "2025-12-06T22:38:43.122121+00:00", "meta": {"OBJECT_NAME": "COSMOS 2251 DEB", "OBJECT_ID": "1993-036EN", "EPOCH": "2025-12-06T15:17:20.096160", "MEAN_MOTION": 14.3347359, "ECCENTRICITY": 0.00707811, "INCLINATION": 74.0893, "RA_OF_ASC_NODE": 71.2585, "ARG_OF_PERICENTER": 81.4933, "MEAN_ANOMALY": 279.4232, "EPHEMERIS_TYPE": 0, "CLASSIFICATION_TYPE": "U", "NORAD_CAT_ID": 33933, "ELEMENT_SET_NO": 999, "REV_AT_EPOCH": 87697, "BSTAR": 0.0005686256, "MEAN_MOTION_DOT": 1.591e-05, "MEAN_MOTION_DDOT": 0}, "tle": {"line1": "1 33933U 93036EN  25340.63703815  .00001591  00000+0  56863-3 0  9995", "line2": "2 33933  74.0893  71.2585 0070781  81.4933 279.4232 14.33473590876978"}}, "geometry": {"type": "Point", "coordinates": [-121.03637141088396, 35.493149238256095]}}, {"type": "Feature", "properties": {"norad_id": 33934, "name": "COSMOS 2251 DEB", "group": "cosmos-2251-debris", "lat": 73.30558154901125, "lon": -175.76618697773813, "alt_km": 698.6823614296791, "timestamp": "2025-12-06T22:38:43.122131+00:00", "meta": {"OBJECT_NAME": "COSMOS 2251 DEB", "OBJECT_ID": "1993-036EP", "EPOCH": "2025-12-06T15:40:24.103200", "MEAN_MOTION": 14.59023409, "ECCENTRICITY": 0.00158984, "INCLINATION": 74.0381, "RA_OF_ASC_NODE": 112.1676, "ARG_OF_PERICENTER": 235.8063, "MEAN_ANOMALY": 124.1596, "EPHEMERIS_TYPE": 0, "CLASSIFICATION_TYPE": "U", "NORAD_CAT_ID": 33934, "ELEMENT_SET_NO": 999, "REV_AT_EPOCH": 88650, "BSTAR": 0.0017639657, "MEAN_MOTION_DOT": 8.282e-05, "MEAN_MOTION_DDOT": 0}, "tle": {"line1": "1 33934U 93036EP  25340.65305675  .00008282  00000+0  17640-2 0  9993", "line2": "2 33934  74.0381 112.1676 0015898 235.8063 124.1596 14.59023409886501"}}, "geometry": {"type": "Point", "coordinates": [-175.76618697773813, 73.30558154901125]}}, {"type": "Feature", "properties": {"norad_id": 33936, "name": "COSMOS 2251 DEB", "group": "cosmos-2251-debris", "lat": -10.80780014226203, "lon": 45.42601172581116, "alt_km": 712.3657110808226, "timestamp": "2025-12-06T22:38:43.122142+00:00", "meta": {"OBJECT_NAME": "COSMOS 2251 DEB", "OBJECT_ID": "1993-036ER", "EPOCH": "2025-12-06T14:28:31.979424", "MEAN_MOTION": 14.60208621, "ECCENTRICITY": 0.00279557, "INCLINATION": 74.0193, "RA_OF_ASC_NODE": 49.2122, "ARG_OF_PERICENTER": 205.739, "MEAN_ANOMALY": 154.2387, "EPHEMERIS_TYPE": 0, "CLASSIFICATION_TYPE": "U", "NORAD_CAT_ID": 33936, "ELEMENT_SET_NO": 999, "REV_AT_EPOCH": 88800, "BSTAR": 0.0012947284, "MEAN_MOTION_DOT": 6.251e-05, "MEAN_MOTION_DDOT": 0}, "tle": {"line1": "1 33936U 93036ER  25340.60314791  .00006251  00000+0  12947-2 0  9998", "line2": "2 33936  74.0193  49.2122 0027955 205.7390 154.2387 14.60208621888008"}}, "geometry": {"type": "Point", "coordinates": [45.42601172581116, -10.80780014226203]}}, {"type": "Feature", "properties": {"norad_id": 33938, "name": "COSMOS 2251 DEB", "group": "cosmos-2251-debris", "lat": 53.7167629438705, "lon": 15.063171311500096, "alt_km": 742.8157098924357, "timestamp": "2025-12-06T22:38:43.122152+00:00", "meta": {"OBJECT_NAME": "COSMOS 2251 DEB", "OBJECT_ID": "1993-036ET", "EPOCH": "2025-12-06T15:34:55.070400", "MEAN_MOTION": 14.46765879, "ECCENTRICITY": 0.00168871, "INCLINATION": 74.0458, "RA_OF_ASC_NODE": 218.5465, "ARG_OF_PERICENTER": 301.0349, "MEAN_ANOMALY": 89.7111, "EPHEMERIS_TYPE": 0, "CLASSIFICATION_TYPE": "U", "NORAD_CAT_ID": 33938, "ELEMENT_SET_NO": 999, "REV_AT_EPOCH": 88312, "BSTAR": 0.0008633006, "MEAN_MOTION_DOT": 3.104e-05, "MEAN_MOTION_DDOT": 0}, "tle": {"line1": "1 33938U 93036ET  25340.64924850  .00003104  00000+0  86330-3 0  9999", "line2": "2 33938  74.0458 218.5465 0016887 301.0349  89.7111 14.46765879883123"}}, "geometry": {"type": "Point", "coordinates": [15.063171311500096, 53.7167629438705]}}]}